H1 CPF 01  gfz 2022 08 06 00  7181 tandemx   
H2 1003001  6202 36605    2022 08 06 00 59 42 2022 08 11 00 00 42   120 1 1  0 0 0
H9
10 0 59801  55422.000000  0    5346524.306   4313300.995    516686.643
10 0 59801  55542.000000  0    5356215.288   4093437.312   1412173.186
10 0 59801  55662.000000  0    5267789.832   3802691.495   2282793.282
10 0 59801  55782.000000  0    5081602.487   3447853.644   3113212.065
10 0 59801  55902.000000  0    4799861.595   3036823.875   3888808.686
10 0 59801  56022.000000  0    4426603.920   2578436.727   4595939.228
10 0 59801  56142.000000  0    3967633.804   2082269.650   5222177.870
10 0 59801  56262.000000  0    3430426.307   1558442.009   5756536.479
10 0 59801  56382.000000  0    2823997.163   1017405.949   6189653.685
10 0 59801  56502.000000  0    2158745.110    469735.762   6513951.803
10 0 59801  56622.000000  0    1446269.922    -74077.830   6723762.586
10 0 59801  56742.000000  0     699167.841   -603827.594   6815422.720
10 0 59801  56862.000000  0     -69193.133  -1109781.564   6787333.822
10 0 59801  56982.000000  0    -844912.629  -1582861.234   6639987.769
10 0 59801  57102.000000  0   -1613808.864  -2014804.568   6375957.507
10 0 59801  57222.000000  0   -2361675.847  -2398309.739   5999853.742
10 0 59801  57342.000000  0   -3074544.424  -2727159.134   5518251.716
10 0 59801  57462.000000  0   -3738947.258  -2996323.690   4939584.128
10 0 59801  57582.000000  0   -4342178.299  -3202042.227   4273997.392
10 0 59801  57702.000000  0   -4872540.841  -3341874.691   3533177.379
10 0 59801  57822.000000  0   -5319580.336  -3414728.484   2730147.009
10 0 59801  57942.000000  0   -5674297.931  -3420858.132   1879038.064
10 0 59801  58062.000000  0   -5929338.475  -3361837.351    994838.474
10 0 59801  58182.000000  0   -6079146.786  -3240502.508     93121.650
10 0 59801  58302.000000  0   -6120089.140  -3060870.061   -810235.616
10 0 59801  58422.000000  0   -6050536.615  -2828029.826  -1699342.651
10 0 59801  58542.000000  0   -5870905.836  -2548015.785  -2558583.632
10 0 59801  58662.000000  0   -5583658.644  -2227659.590  -3372897.400
10 0 59801  58782.000000  0   -5193261.528  -1874430.517  -4128044.556
10 0 59801  58902.000000  0   -4706106.110  -1496265.790  -4810855.577
10 0 59801  59022.000000  0   -4130393.812  -1101395.767  -5409456.627
10 0 59801  59142.000000  0   -3475986.777   -698167.536  -5913468.587
10 0 59801  59262.000000  0   -2754230.237   -294871.625  -6314176.299
10 0 59801  59382.000000  0   -1977750.612    100424.664  -6604667.520
10 0 59801  59502.000000  0   -1160232.338    480033.732  -6779940.602
10 0 59801  59622.000000  0    -316179.195    836792.089  -6836980.752
10 0 59801  59742.000000  0     539337.296   1164191.967  -6774805.537
10 0 59801  59862.000000  0    1390939.218   1456495.905  -6594481.347
10 0 59801  59982.000000  0    2223213.291   1708835.862  -6299108.868
10 0 59801  60102.000000  0    3020984.739   1917293.799  -5893775.230
10 0 59801  60222.000000  0    3769590.376   2078962.082  -5385474.324
10 0 59801  60342.000000  0    4455146.570   2191983.708  -4782997.754
10 0 59801  60462.000000  0    5064810.426   2255571.950  -4096794.407
10 0 59801  60582.000000  0    5587026.558   2270007.770  -3338798.653
10 0 59801  60702.000000  0    6011754.386   2236615.135  -2522231.138
10 0 59801  60822.000000  0    6330672.867   2157714.755  -1661373.019
10 0 59801  60942.000000  0    6537354.073   2036556.362   -771315.814
10 0 59801  61062.000000  0    6627402.426   1877230.600    132306.387
10 0 59801  61182.000000  0    6598553.288   1684562.209   1033598.988
10 0 59801  61302.000000  0    6450729.653   1463988.421   1916692.643
10 0 59801  61422.000000  0    6186057.174   1221424.395   2766032.506
10 0 59801  61542.000000  0    5808831.958    963118.872   3566660.795
10 0 59801  61662.000000  0    5325445.352    695504.983   4304487.184
10 0 59801  61782.000000  0    4744266.388    425049.297   4966539.560
10 0 59801  61902.000000  0    4075488.299    158104.015   5541193.002
10 0 59801  62022.000000  0    3330938.956    -99236.337   6018372.412
10 0 59801  62142.000000  0    2523862.476   -341267.751   6389723.120
10 0 59801  62262.000000  0    1668678.377   -562797.952   6648751.274
10 0 59801  62382.000000  0     780720.201   -759254.291   6790932.720
10 0 59801  62502.000000  0    -124042.495   -926776.017   6813786.971
10 0 59801  62622.000000  0   -1029291.377  -1062288.995   6716916.575
10 0 59801  62742.000000  0   -1918652.580  -1163562.202   6502012.798
10 0 59801  62862.000000  0   -2775991.076  -1229244.108   6172827.171
10 0 59801  62982.000000  0   -3585702.431  -1258878.996   5735111.671
10 0 59801  63102.000000  0   -4333000.565  -1252904.120   5196525.583
10 0 59801  63222.000000  0   -5004193.828  -1212627.433   4566507.300
10 0 59801  63342.000000  0   -5586943.638  -1140184.928   3856113.135
10 0 59801  63462.000000  0   -6070499.406  -1038478.828   3077825.629
10 0 59801  63582.000000  0   -6445905.649   -911098.070   2245336.085
10 0 59801  63702.000000  0   -6706179.156   -762222.891   1373302.569
10 0 59801  63822.000000  0   -6846447.493   -596515.498    477085.239
10 0 59801  63942.000000  0   -6864044.519   -418999.609   -427532.262
10 0 59801  64062.000000  0   -6758562.116   -234931.758  -1324629.802
10 0 59801  64182.000000  0   -6531855.202    -49667.732  -2198439.620
10 0 59801  64302.000000  0   -6188003.147    131471.519  -3033629.381
10 0 59801  64422.000000  0   -5733227.251    303332.471  -3815577.579
10 0 59801  64542.000000  0   -5175764.724    461056.285  -4530631.130
10 0 59801  64662.000000  0   -4525706.139    600196.991  -5166340.985
10 0 59801  64782.000000  0   -3794800.212    716828.801  -5711671.941
10 0 59801  64902.000000  0   -2996231.605    807639.185  -6157184.697
10 0 59801  65022.000000  0   -2144376.715    870006.324  -6495186.979
10 0 59801  65142.000000  0   -1254543.353    902060.674  -6719855.288
10 0 59801  65262.000000  0    -342696.764    902729.337  -6827324.368
10 0 59801  65382.000000  0     574820.613    871762.110  -6815745.079
10 0 59801  65502.000000  0    1481573.662    809739.252  -6685314.685
10 0 59801  65622.000000  0    2361323.432    718060.975  -6438275.285
10 0 59801  65742.000000  0    3198312.218    598918.864  -6078879.151
10 0 59801  65862.000000  0    3977542.023    455249.492  -5613322.430
10 0 59801  65982.000000  0    4685041.595    290669.950  -5049648.755
10 0 59801  66102.000000  0    5308120.280    109397.829  -4397622.417
10 0 59801  66222.000000  0    5835603.181    -83844.367  -3668569.529
10 0 59801  66342.000000  0    6258040.954   -283938.330  -2875190.046
10 0 59801  66462.000000  0    6567891.603   -485490.597  -2031343.273
10 0 59801  66582.000000  0    6759668.527   -682962.029  -1151807.428
10 0 59801  66702.000000  0    6830049.250   -870802.538   -252018.907
10 0 59801  66822.000000  0    6777942.660  -1043588.409    652203.288
10 0 59801  66942.000000  0    6604511.879  -1196158.666   1544943.416
10 0 59801  67062.000000  0    6313152.181  -1323747.123   2410477.784
10 0 59801  67182.000000  0    5909422.540  -1422105.666   3233561.762
10 0 59801  67302.000000  0    5400933.643  -1487615.968   3999704.991
10 0 59801  67422.000000  0    4797196.345  -1517388.054   4695431.274
10 0 59801  67542.000000  0    4109434.008  -1509341.315   5308517.111
10 0 59801  67662.000000  0    3350364.793  -1462266.751   5828205.661
10 0 59801  67782.000000  0    2533957.224  -1375870.308   6245392.090
10 0 59801  67902.000000  0    1675166.745  -1250795.989   6552777.145
10 0 59801  68022.000000  0     789657.283  -1088628.618   6744989.679
10 0 59801  68142.000000  0    -106487.511   -891875.047   6818674.708
10 0 59801  68262.000000  0    -997056.532   -663925.224   6772546.944
10 0 59801  68382.000000  0   -1866003.028   -408993.912   6607411.284
10 0 59801  68502.000000  0   -2697732.250   -132043.136   6326149.631
10 0 59801  68622.000000  0   -3477380.943    161313.155   5933674.822
10 0 59801  68742.000000  0   -4191085.461    464920.586   5436850.827
10 0 59801  68862.000000  0   -4826233.366    772210.348   4844378.575
10 0 59801  68982.000000  0   -5371693.656   1076337.512   4166649.340
10 0 59801  69102.000000  0   -5818020.440   1370329.261   3415565.871
10 0 59801  69222.000000  0   -6157625.257   1647239.539   2604335.415
10 0 59801  69342.000000  0   -6384915.288   1900306.708   1747236.931
10 0 59801  69462.000000  0   -6496393.736   2123110.547    859366.197
10 0 59801  69582.000000  0   -6490718.233   2309725.046    -43637.497
10 0 59801  69702.000000  0   -6368714.998   2454861.635   -945875.598
10 0 59801  69822.000000  0   -6133349.245   2553999.902  -1831479.001
10 0 59801  69942.000000  0   -5789653.272   2603503.174  -2684895.464
10 0 59801  70062.000000  0   -5344612.213   2600715.316  -3491169.908
10 0 59801  70182.000000  0   -4807012.059   2544035.578  -4236209.272
10 0 59801  70302.000000  0   -4187255.547   2432971.051  -4907027.599
10 0 59801  70422.000000  0   -3497150.260   2268165.919  -5491966.670
10 0 59801  70542.000000  0   -2749676.130   2051407.710  -5980889.173
10 0 59801  70662.000000  0   -1958736.934   1785610.575  -6365344.640
10 0 59801  70782.000000  0   -1138898.492   1474775.467  -6638703.967
10 0 59801  70902.000000  0    -305122.504   1123928.956  -6796261.777
10 0 59801  71022.000000  0     527501.233    739042.088  -6835308.035
10 0 59801  71142.000000  0    1344020.392    326931.000  -6755171.005
10 0 59801  71262.000000  0    2129883.761   -104861.415  -6557228.323
10 0 59801  71382.000000  0    2871194.364   -548199.850  -6244885.173
10 0 59801  71502.000000  0    3554951.888   -994505.396  -5823522.316
10 0 59801  71622.000000  0    4169278.673  -1434916.418  -5300412.043
10 0 59801  71742.000000  0    4703628.728  -1860460.616  -4684605.140
10 0 59801  71862.000000  0    5148974.782  -2262235.334  -3986785.264
99
